{
  "type": "FeatureCollection",
  "features": [
    {
      "type": "Feature",
      "properties": {
        "norad_id": 34056,
        "name": "COSMOS 2251 DEB",
        "group": "cosmos-2251-debris",
        "lat": 16.994297741882164,
        "lon": -105.89559130131597,
        "alt_km": 749.8304501125995,
        "timestamp": "2025-12-11T05:00:26.702006+00:00",
        "meta_object_name": "COSMOS 2251 DEB",
        "meta_object_id": "1993-036JT",
        "meta_epoch": "2025-12-10T09:59:57.306336",
        "meta_mean_motion": 14.20540907,
        "meta_eccentricity": 0.01242589,
        "meta_inclination": 74.0593,
        "meta_ra_of_asc_node": 80.5311,
        "meta_arg_of_pericenter": 128.9725,
        "meta_mean_anomaly": 303.7363,
        "meta_ephemeris_type": 0,
        "meta_classification_type": "U",
        "meta_norad_cat_id": 34056,
        "meta_element_set_no": 999,
        "meta_rev_at_epoch": 86378,
        "meta_bstar": 0.0015906063,
        "meta_mean_motion_dot": 3.672e-05,
        "meta_mean_motion_ddot": 0,
        "tle_line1": "1 34056U 93036JT  25344.41663549  .00003672  00000+0  15906-2 0  9995",
        "tle_line2": "2 34056  74.0593  80.5311 0124258 128.9725 303.7363 14.20540907863781"
      },
      "geometry": {
        "type": "Point",
        "coordinates": [
          -105.89559130131597,
          16.994297741882164
        ]
      }
    },
    {
      "type": "Feature",
      "properties": {
        "norad_id": 34058,
        "name": "COSMOS 2251 DEB",
        "group": "cosmos-2251-debris",
        "lat": -46.913389847641504,
        "lon": 162.6476092747597,
        "alt_km": 1247.6371913633166,
        "timestamp": "2025-12-11T05:00:26.702016+00:00",
        "meta_object_name": "COSMOS 2251 DEB",
        "meta_object_id": "1993-036JV",
        "meta_epoch": "2025-12-10T20:30:49.233600",
        "meta_mean_motion": 13.56071639,
        "meta_eccentricity": 0.03780353,
        "meta_inclination": 73.9315,
        "meta_ra_of_asc_node": 181.168,
        "meta_arg_of_pericenter": 176.7653,
        "meta_mean_anomaly": 203.6121,
        "meta_ephemeris_type": 0,
        "meta_classification_type": "U",
        "meta_norad_cat_id": 34058,
        "meta_element_set_no": 999,
        "meta_rev_at_epoch": 83117,
        "meta_bstar": 0.0009260451,
        "meta_mean_motion_dot": 1.007e-05,
        "meta_mean_motion_ddot": 0,
        "tle_line1": "1 34058U 93036JV  25344.85473650  .00001007  00000+0  92605-3 0  9999",
        "tle_line2": "2 34058  73.9315 181.1680 0378035 176.7653 203.6121 13.56071639831172"
      },
      "geometry": {
        "type": "Point",
        "coordinates": [
          162.6476092747597,
          -46.913389847641504
        ]
      }
    },
    {
      "type": "Feature",
      "properties": {
        "norad_id": 34059,
        "name": "COSMOS 2251 DEB",
        "group": "cosmos-2251-debris",
        "lat": -5.018414141745042,
        "lon": -172.274939648049,
        "alt_km": 718.9559234271137,
        "timestamp": "2025-12-11T05:00:26.702026+00:00",
        "meta_object_name": "COSMOS 2251 DEB",
        "meta_object_id": "1993-036JW",
        "meta_epoch": "2025-12-10T14:18:05.118048",
        "meta_mean_motion": 14.52926834,
        "meta_eccentricity": 0.0018668,
        "meta_inclination": 74.0379,
        "meta_ra_of_asc_node": 190.3207,
        "meta_arg_of_pericenter": 267.8012,
        "meta_mean_anomaly": 123.1743,
        "meta_ephemeris_type": 0,
        "meta_classification_type": "U",
        "meta_norad_cat_id": 34059,
        "meta_element_set_no": 999,
        "meta_rev_at_epoch": 88428,
        "meta_bstar": 0.0010837,
        "meta_mean_motion_dot": 4.45e-05,
        "meta_mean_motion_ddot": 0,
        "tle_line1": "1 34059U 93036JW  25344.59589257  .00004450  00000+0  10837-2 0  9993",
        "tle_line2": "2 34059  74.0379 190.3207 0018668 267.8012 123.1743 14.52926834884285"
      },
      "geometry": {
        "type": "Point",
        "coordinates": [
          -172.274939648049,
          -5.018414141745042
        ]
      }
    },
    {
      "type": "Feature",
      "properties": {
        "norad_id": 34061,
        "name": "COSMOS 2251 DEB",
        "group": "cosmos-2251-debris",
        "lat": 48.4568000894961,
        "lon": -74.93750563626097,
        "alt_km": 747.0845480745393,
        "timestamp": "2025-12-11T05:00:26.702036+00:00",
        "meta_object_name": "COSMOS 2251 DEB",
        "meta_object_id": "1993-036JY",
        "meta_epoch": "2025-12-10T18:54:43.695072",
        "meta_mean_motion": 14.40351103,
        "meta_eccentricity": 0.00204864,
        "meta_inclination": 74.0399,
        "meta_ra_of_asc_node": 266.9968,
        "meta_arg_of_pericenter": 344.2327,
        "meta_mean_anomaly": 46.5081,
        "meta_ephemeris_type": 0,
        "meta_classification_type": "U",
        "meta_norad_cat_id": 34061,
        "meta_element_set_no": 999,
        "meta_rev_at_epoch": 88152,
        "meta_bstar": 0.00059251958,
        "meta_mean_motion_dot": 1.858e-05,
        "meta_mean_motion_ddot": 0,
        "tle_line1": "1 34061U 93036JY  25344.78800573  .00001858  00000+0  59252-3 0  9998",
        "tle_line2": "2 34061  74.0399 266.9968 0020486 344.2327  46.5081 14.40351103881529"
      },
      "geometry": {
        "type": "Point",
        "coordinates": [
          -74.93750563626097,
          48.4568000894961
        ]
      }
    },
    {
      "type": "Feature",
      "properties": {
        "norad_id": 34062,
        "name": "COSMOS 2251 DEB",
        "group": "cosmos-2251-debris",
        "lat": -36.934064977676634,
        "lon": 128.613836230268,
        "alt_km": 649.592837273598,
        "timestamp": "2025-12-11T05:00:26.702046+00:00",
        "meta_object_name": "COSMOS 2251 DEB",
        "meta_object_id": "1993-036JZ",
        "meta_epoch": "2025-12-10T09:47:47.395680",
        "meta_mean_motion": 14.78506954,
        "meta_eccentricity": 0.00751001,
        "meta_inclination": 74.0278,
        "meta_ra_of_asc_node": 142.6209,
        "meta_arg_of_pericenter": 222.1528,
        "meta_mean_anomaly": 159.596,
        "meta_ephemeris_type": 0,
        "meta_classification_type": "U",
        "meta_norad_cat_id": 34062,
        "meta_element_set_no": 999,
        "meta_rev_at_epoch": 88561,
        "meta_bstar": 0.0043211194,
        "meta_mean_motion_dot": 0.00033209,
        "meta_mean_motion_ddot": 0,
        "tle_line1": "1 34062U 93036JZ  25344.40818745  .00033209  00000+0  43211-2 0  9990",
        "tle_line2": "2 34062  74.0278 142.6209 0075100 222.1528 159.5960 14.78506954885616"
      },
      "geometry": {
        "type": "Point",
        "coordinates": [
          128.613836230268,
          -36.934064977676634
        ]
      }
    },
    {
      "type": "Feature",
      "properties": {
        "norad_id": 34064,
        "name": "COSMOS 2251 DEB",
        "group": "cosmos-2251-debris",
        "lat": 13.16289185064732,
        "lon": -82.45205712848434,
        "alt_km": 738.4472001654967,
        "timestamp": "2025-12-11T05:00:26.702056+00:00",
        "meta_object_name": "COSMOS 2251 DEB",
        "meta_object_id": "1993-036KB",
        "meta_epoch": "2025-12-10T19:05:48.334848",
        "meta_mean_motion": 14.42327144,
        "meta_eccentricity": 0.00220515,
        "meta_inclination": 74.0329,
        "meta_ra_of_asc_node": 274.4744,
        "meta_arg_of_pericenter": 341.169,
        "meta_mean_anomaly": 49.2071,
        "meta_ephemeris_type": 0,
        "meta_classification_type": "U",
        "meta_norad_cat_id": 34064,
        "meta_element_set_no": 999,
        "meta_rev_at_epoch": 88114,
        "meta_bstar": 0.00089090139,
        "meta_mean_motion_dot": 2.925e-05,
        "meta_mean_motion_ddot": 0,
        "tle_line1": "1 34064U 93036KB  25344.79569832  .00002925  00000+0  89090-3 0  9991",
        "tle_line2": "2 34064  74.0329 274.4744 0022051 341.1690  49.2071 14.42327144881147"
      },
      "geometry": {
        "type": "Point",
        "coordinates": [
          -82.45205712848434,
          13.16289185064732
        ]
      }
    },
    {
      "type": "Feature",
      "properties": {
        "norad_id": 34065,
        "name": "COSMOS 2251 DEB",
        "group": "cosmos-2251-debris",
        "lat": 47.91196662365905,
        "lon": -80.58088885468045,
        "alt_km": 753.0919993933148,
        "timestamp": "2025-12-11T05:00:26.702066+00:00",
        "meta_object_name": "COSMOS 2251 DEB",
        "meta_object_id": "1993-036KC",
        "meta_epoch": "2025-12-10T06:07:15.765312",
        "meta_mean_motion": 14.38058452,
        "meta_eccentricity": 0.0016265,
        "meta_inclination": 74.0359,
        "meta_ra_of_asc_node": 262.6972,
        "meta_arg_of_pericenter": 0.7356,
        "meta_mean_anomaly": 154.9078,
        "meta_ephemeris_type": 0,
        "meta_classification_type": "U",
        "meta_norad_cat_id": 34065,
        "meta_element_set_no": 999,
        "meta_rev_at_epoch": 88169,
        "meta_bstar": 0.00028724,
        "meta_mean_motion_dot": 8.45e-06,
        "meta_mean_motion_ddot": 0,
        "tle_line1": "1 34065U 93036KC  25344.25504358  .00000845  00000+0  28724-3 0  9991",
        "tle_line2": "2 34065  74.0359 262.6972 0016265   0.7356 154.9078 14.38058452881699"
      },
      "geometry": {
        "type": "Point",
        "coordinates": [
          -80.58088885468045,
          47.91196662365905
        ]
      }
    }
  ]
}